     3.00           N                   E                   RINEX VERSION / TYPE
BRD_USR             ESA                 20190103 101815  UTCPGM / RUN BY / DATE
 GAL   3.4750E+01 -2.3438E-02  2.1973E-03  0.0000E+00       IONOSPHERIC CORR
GAUT  9.3132257462E-10-8.881784197E-16 345600 2034 GSTB   0 TIME SYSTEM CORR
GPGA -2.2700987756E-09-1.154631946E-14 345600 2034 GSTB   0 TIME SYSTEM CORR
                                                            END OF HEADER
E26 2019 01 03 07 40 00 5.062744836323E-03-4.337152859080E-11 0.000000000000E+00
     1.100000000000E+02-1.669062500000E+02 2.776187067906E-09 6.246929785014E-01
    -7.769092917442E-06 3.259746590629E-04 9.104609489441E-06 5.440611022949E+03
     3.732000000000E+05 1.303851604462E-08-7.352590146949E-01 7.450580596924E-09
     9.783925104095E-01 1.548125000000E+02-2.133953462996E+00-5.409511042134E-09
    -1.103617398666E-10 5.210000000000E+02 2.034000000000E+03 0.000000000000E+00
     3.120000000000E+00 0.000000000000E+00 1.164153218269E-09 1.396983861923E-09
     3.744250000000E+05 0.000000000000E+00 0.000000000000E+00 0.000000000000E+00
E27 2019 01 03 07 40 00 5.573534290306E-04-7.730704965070E-12 0.000000000000E+00
     1.100000000000E+02 1.857187500000E+02 2.505818663120E-09 2.321597939073E+00
     8.584931492805E-06 2.104586455971E-04 6.655231118202E-06 5.440635686874E+03
     3.732000000000E+05 0.000000000000E+00-2.827219256230E+00 1.303851604462E-08
     9.898680479774E-01 2.105312500000E+02-9.383355400245E-01-5.380581265664E-09
     2.335811581642E-10 5.210000000000E+02 2.034000000000E+03 0.000000000000E+00
     3.120000000000E+00 0.000000000000E+00-2.561137080193E-09-3.259629011154E-09
     3.744250000000E+05 0.000000000000E+00 0.000000000000E+00 0.000000000000E+00
E30 2019 01 03 06 50 00 5.218844860792E-03-3.039701823582E-11 0.000000000000E+00
     1.050000000000E+02 1.805312500000E+02 2.542248752008E-09 1.282591745552E+00
     8.296221494675E-06 2.921818522736E-04 6.698071956635E-06 5.440626342773E+03
     3.702000000000E+05 1.862645149231E-08-2.821192316087E+00 4.470348358154E-08
     9.878807586160E-01 2.071875000000E+02 4.939358157351E-01-5.427368928844E-09
     2.482246252663E-10 5.210000000000E+02 2.034000000000E+03 0.000000000000E+00
     3.120000000000E+00 0.000000000000E+00-2.793967723846E-09-3.492459654808E-09
     3.744250000000E+05 0.000000000000E+00 0.000000000000E+00 0.000000000000E+00
E31 2019 01 03 06 40 00 9.423005976714E-04-9.734435479913E-12 0.000000000000E+00
     1.040000000000E+02 2.041250000000E+02 2.585107680111E-09 1.168851035223E-01
     9.376555681229E-06 2.596590202302E-04 6.899237632751E-06 5.440632768631E+03
     3.696000000000E+05 7.450580596924E-08-2.827248267359E+00-5.587935447693E-08
     9.898689842450E-01 2.016562500000E+02-1.536104188608E+00-5.469156383745E-09
     2.850118718885E-10 5.210000000000E+02 2.034000000000E+03 0.000000000000E+00
     3.120000000000E+00 0.000000000000E+00-2.328306436539E-10-2.328306436539E-10
     3.744250000000E+05 0.000000000000E+00 0.000000000000E+00 0.000000000000E+00
E33 2019 01 03 07 40 00 8.478570380248E-04 2.842170943040E-14 0.000000000000E+00
     1.100000000000E+02-1.766562500000E+02 2.552606326299E-09-7.698488422430E-01
    -8.281320333481E-06 3.552295966074E-04 9.810552000999E-06 5.440605390549E+03
     3.732000000000E+05-3.725290298462E-09-7.442432525131E-01-1.117587089539E-08
     9.852729710883E-01 1.396250000000E+02-1.531439141810E+00-5.351651489194E-09
    -1.239337337660E-10 5.210000000000E+02 2.034000000000E+03 0.000000000000E+00
     3.120000000000E+00 4.550000000000E+02-8.149072527885E-09-9.313225746155E-09
     3.744250000000E+05 0.000000000000E+00 0.000000000000E+00 0.000000000000E+00
E36 2019 01 03 06 50 00 7.641097181477E-04-4.419575816428E-12 0.000000000000E+00
     1.050000000000E+02-1.849062500000E+02 2.676182902331E-09 2.900404767238E+00
    -8.504837751389E-06 3.251685993746E-04 7.672235369682E-06 5.440602067947E+03
     3.702000000000E+05 3.725290298462E-08-7.442009975873E-01-9.313225746155E-09
     9.852813916448E-01 1.877812500000E+02-1.644854124651E+00-5.364152009891E-09
    -1.453631978178E-10 5.210000000000E+02 2.034000000000E+03 0.000000000000E+00
    -1.000000000000E+00 4.550000000000E+02 1.164153218269E-09 6.984919309616E-10
     3.744250000000E+05 0.000000000000E+00 0.000000000000E+00 0.000000000000E+00
E01 2019 01 03 07 50 00-5.127281183377E-04-8.114398042380E-12 0.000000000000E+00
     1.110000000000E+02 1.994687500000E+02 2.456173738066E-09 7.371203073110E-01
     9.363517165184E-06 1.187149900943E-04 6.245449185371E-06 5.440627122879E+03
     3.738000000000E+05 6.705522537231E-08-2.824633640689E+00-2.421438694000E-08
     9.903308947769E-01 2.196250000000E+02-8.681560447897E-01-5.411653988539E-09
     3.264421690552E-10 5.210000000000E+02 2.034000000000E+03 0.000000000000E+00
     3.120000000000E+00 0.000000000000E+00-4.656612873077E-09-5.355104804039E-09
     3.744850000000E+05 0.000000000000E+00 0.000000000000E+00 0.000000000000E+00
E02 2019 01 03 07 50 00 4.177261143923E-05 1.577404873387E-12 0.000000000000E+00
     1.110000000000E+02 1.822187500000E+02 2.496889719765E-09-2.986541753863E+00
     8.581206202507E-06 2.672380069271E-04 7.821246981621E-06 5.440623779297E+03
     3.738000000000E+05-2.235174179077E-08-2.824665642022E+00-1.117587089539E-08
     9.903389949543E-01 1.856562500000E+02-2.877994158409E-01-5.370223691372E-09
     2.939408152434E-10 5.210000000000E+02 2.034000000000E+03 0.000000000000E+00
     3.120000000000E+00 0.000000000000E+00-5.820766091347E-09-7.217749953270E-09
     3.744850000000E+05 0.000000000000E+00 0.000000000000E+00 0.000000000000E+00
E07 2019 01 03 07 50 00-1.055495813489E-04-7.062794793455E-12 0.000000000000E+00
     1.110000000000E+02-1.287500000000E+01 3.788729244352E-09-2.864666851821E+00
    -6.034970283508E-07 1.559945521876E-04 4.043802618980E-06 5.440607152939E+03
     3.738000000000E+05-1.490116119385E-08 1.366345978023E+00-3.725290298462E-08
     9.521909088362E-01 2.486875000000E+02 1.093775951930E-01-5.874173254323E-09
    -1.950081228711E-10 5.210000000000E+02 2.034000000000E+03 0.000000000000E+00
     3.120000000000E+00 0.000000000000E+00 4.656612873077E-10 2.328306436539E-10
     3.744850000000E+05 0.000000000000E+00 0.000000000000E+00 0.000000000000E+00
E08 2019 01 03 07 50 00 6.430846347939E-03-7.460698725481E-12 0.000000000000E+00
     1.110000000000E+02-1.240625000000E+01 3.664081195118E-09-2.463924035023E+00
    -5.215406417847E-07 2.413843758404E-04 4.235655069351E-06 5.440605665207E+03
     3.738000000000E+05 2.980232238770E-08 1.357688856002E+00 5.587935447693E-09
     9.581310452725E-01 2.492500000000E+02 4.953003935352E-01-5.811670650839E-09
    -1.260766801712E-10 5.210000000000E+02 2.034000000000E+03 0.000000000000E+00
     3.120000000000E+00 0.000000000000E+00-8.614733815193E-09-9.778887033463E-09
     3.744850000000E+05 0.000000000000E+00 0.000000000000E+00 0.000000000000E+00
E09 2019 01 03 07 50 00 6.569481571205E-03-1.131184035330E-11 0.000000000000E+00
     1.110000000000E+02-9.718750000000E+00 3.705868650019E-09 2.309347031516E-01
    -4.731118679047E-07 2.588349161670E-04 4.202127456665E-06 5.440603372574E+03
     3.738000000000E+05 3.352761268616E-08 1.357685892130E+00 1.490116119385E-08
     9.581617460713E-01 2.462187500000E+02 1.553849599959E-01-5.754882571101E-09
    -1.375057276655E-10 5.210000000000E+02 2.034000000000E+03 0.000000000000E+00
     3.120000000000E+00 0.000000000000E+00-3.492459654808E-09-4.190951585770E-09
     3.744850000000E+05 0.000000000000E+00 0.000000000000E+00 0.000000000000E+00
E11 2019 01 03 07 50 00 5.718842730857E-03 1.165290086647E-12 0.000000000000E+00
     1.110000000000E+02-2.021250000000E+02 2.652610491874E-09 2.837483541516E+00
    -9.272247552872E-06 2.352375304326E-04 8.452683687210E-06 5.440613809586E+03
     3.738000000000E+05-7.450580596924E-09-7.389051887899E-01 3.725290298462E-09
     9.820348180120E-01 1.695312500000E+02-3.554410217738E-01-5.366294956296E-09
    -1.114332130692E-10 5.210000000000E+02 2.034000000000E+03 0.000000000000E+00
     3.120000000000E+00 0.000000000000E+00-1.816079020500E-08-1.979060471058E-08
     3.744850000000E+05 0.000000000000E+00 0.000000000000E+00 0.000000000000E+00
E13 2019 01 03 07 50 00 3.812727518380E-04 4.263256414561E-13 0.000000000000E+00
     1.110000000000E+02-1.661250000000E+02 2.666896801242E-09 9.738663706091E-01
    -7.735565304756E-06 3.295755013824E-04 8.706003427505E-06 5.440604734421E+03
     3.738000000000E+05-5.587935447693E-09-7.442106235882E-01 1.862645149231E-09
     9.852764659996E-01 1.677187500000E+02-1.627107547355E+00-5.349508542789E-09
    -1.103617398666E-10 5.210000000000E+02 2.034000000000E+03 0.000000000000E+00
     3.120000000000E+00 4.550000000000E+02-4.423782229424E-09-5.355104804039E-09
     3.744850000000E+05 0.000000000000E+00 0.000000000000E+00 0.000000000000E+00
E14 2019 01 03 07 50 00 6.465480197221E-03-5.542233338929E-12 0.000000000000E+00
     1.110000000000E+02-7.103125000000E+01 5.764882987659E-09 2.691086170884E-01
    -5.271285772324E-06 1.663505402394E-01 6.224960088730E-06 5.289327007294E+03
     3.738000000000E+05-3.667548298836E-06-1.338726541117E+00-3.634020686150E-06
     8.825812231191E-01 2.533750000000E+02 1.450869175828E+00-9.077163814593E-09
     7.171727302657E-10 5.210000000000E+02 2.034000000000E+03 0.000000000000E+00
     3.120000000000E+00 4.550000000000E+02 3.282912075520E-08 3.702007234097E-08
     3.744850000000E+05 0.000000000000E+00 0.000000000000E+00 0.000000000000E+00
